[{"OBJECT_NAME":"STARLINK-5606","OBJECT_ID":"2023-028AC","EPOCH":"2025-10-09T05:53:07.500480","MEAN_MOTION":14.98337626,"ECCENTRICITY":0.00026008,"INCLINATION":69.9997,"RA_OF_ASC_NODE":246.481,"ARG_OF_PERICENTER":268.3177,"MEAN_ANOMALY":91.7684,"EPHEMERIS_TYPE":0,"CLASSIFICATION_TYPE":"U","NORAD_CAT_ID":55767,"ELEMENT_SET_NO":999,"REV_AT_EPOCH":14383,"BSTAR":-0.00022265806,"MEAN_MOTION_DOT":-2.749e-5,"MEAN_MOTION_DDOT":0},{"OBJECT_NAME":"STARLINK-5584","OBJECT_ID":"2023-028AE","EPOCH":"2025-10-09T05:23:03.888384","MEAN_MOTION":14.98329971,"ECCENTRICITY":0.00029896,"INCLINATION":69.9991,"RA_OF_ASC_NODE":246.4073,"ARG_OF_PERICENTER":269.5304,"MEAN_ANOMALY":90.5513,"EPHEMERIS_TYPE":0,"CLASSIFICATION_TYPE":"U","NORAD_CAT_ID":55769,"ELEMENT_SET_NO":999,"REV_AT_EPOCH":14384,"BSTAR":-1.7964e-5,"MEAN_MOTION_DOT":-3.07e-6,"MEAN_MOTION_DDOT":0},{"OBJECT_NAME":"STARLINK-5557","OBJECT_ID":"2023-028AF","EPOCH":"2025-10-09T05:17:03.291936","MEAN_MOTION":14.98328047,"ECCENTRICITY":0.00028894,"INCLINATION":69.9994,"RA_OF_ASC_NODE":246.3934,"ARG_OF_PERICENTER":267.2324,"MEAN_ANOMALY":92.8505,"EPHEMERIS_TYPE":0,"CLASSIFICATION_TYPE":"U","NORAD_CAT_ID":55770,"ELEMENT_SET_NO":999,"REV_AT_EPOCH":14384,"BSTAR":0.00011242154,"MEAN_MOTION_DOT":1.249e-5,"MEAN_MOTION_DDOT":0},{"OBJECT_NAME":"STARLINK-5591","OBJECT_ID":"2023-028AG","EPOCH":"2025-10-09T06:41:10.092192","MEAN_MOTION":14.98328045,"ECCENTRICITY":0.00034055,"INCLINATION":69.999,"RA_OF_ASC_NODE":246.1959,"ARG_OF_PERICENTER":266.2925,"MEAN_ANOMALY":93.7845,"EPHEMERIS_TYPE":0,"CLASSIFICATION_TYPE":"U","NORAD_CAT_ID":55771,"ELEMENT_SET_NO":999,"REV_AT_EPOCH":14385,"BSTAR":-1.2085208e-5,"MEAN_MOTION_DOT":-2.37e-6,"MEAN_MOTION_DDOT":0},{"OBJECT_NAME":"STARLINK-5835","OBJECT_ID":"2023-028AH","EPOCH":"2025-10-09T06:17:21.653088","MEAN_MOTION":14.98324689,"ECCENTRICITY":0.00034225,"INCLINATION":69.9988,"RA_OF_ASC_NODE":246.1379,"ARG_OF_PERICENTER":266.7715,"MEAN_ANOMALY":93.3052,"EPHEMERIS_TYPE":0,"CLASSIFICATION_TYPE":"U","NORAD_CAT_ID":55772,"ELEMENT_SET_NO":999,"REV_AT_EPOCH":14385,"BSTAR":-2.959406e-6,"MEAN_MOTION_DOT":-1.28e-6,"MEAN_MOTION_DDOT":0},{"OBJECT_NAME":"STARLINK-5833","OBJECT_ID":"2023-028AJ","EPOCH":"2025-10-09T05:29:05.113824","MEAN_MOTION":14.98326212,"ECCENTRICITY":0.00029226,"INCLINATION":69.9994,"RA_OF_ASC_NODE":246.4206,"ARG_OF_PERICENTER":268.2495,"MEAN_ANOMALY":91.8329,"EPHEMERIS_TYPE":0,"CLASSIFICATION_TYPE":"U","NORAD_CAT_ID":55773,"ELEMENT_SET_NO":999,"REV_AT_EPOCH":14384,"BSTAR":-8.7851815e-5,"MEAN_MOTION_DOT":-1.141e-5,"MEAN_MOTION_DDOT":0},{"OBJECT_NAME":"STARLINK-5812","OBJECT_ID":"2023-028AK","EPOCH":"2025-10-09T06:35:09.519936","MEAN_MOTION":14.98326885,"ECCENTRICITY":0.00033377,"INCLINATION":69.999,"RA_OF_ASC_NODE":246.1812,"ARG_OF_PERICENTER":268.3365,"MEAN_ANOMALY":91.7412,"EPHEMERIS_TYPE":0,"CLASSIFICATION_TYPE":"U","NORAD_CAT_ID":55774,"ELEMENT_SET_NO":999,"REV_AT_EPOCH":14385,"BSTAR":-3.4277224e-5,"MEAN_MOTION_DOT":-5.02e-6,"MEAN_MOTION_DDOT":0},{"OBJECT_NAME":"STARLINK-5809","OBJECT_ID":"2023-028AL","EPOCH":"2025-10-09T06:29:08.687616","MEAN_MOTION":14.98329504,"ECCENTRICITY":0.00031515,"INCLINATION":69.9988,"RA_OF_ASC_NODE":246.1663,"ARG_OF_PERICENTER":268.1322,"MEAN_ANOMALY":91.9476,"EPHEMERIS_TYPE":0,"CLASSIFICATION_TYPE":"U","NORAD_CAT_ID":55775,"ELEMENT_SET_NO":999,"REV_AT_EPOCH":14385,"BSTAR":-8.292326e-6,"MEAN_MOTION_DOT":-1.92e-6,"MEAN_MOTION_DDOT":0},{"OBJECT_NAME":"STARLINK-5810","OBJECT_ID":"2023-028AM","EPOCH":"2025-10-08T07:59:25.012896","MEAN_MOTION":15.31888657,"ECCENTRICITY":0.00035763,"INCLINATION":69.9968,"RA_OF_ASC_NODE":246.5283,"ARG_OF_PERICENTER":269.6735,"MEAN_ANOMALY":90.4031,"EPHEMERIS_TYPE":0,"CLASSIFICATION_TYPE":"U","NORAD_CAT_ID":55776,"ELEMENT_SET_NO":999,"REV_AT_EPOCH":14376,"BSTAR":0.0048967313,"MEAN_MOTION_DOT":0.00154195,"MEAN_MOTION_DDOT":0},{"OBJECT_NAME":"STARLINK-5814","OBJECT_ID":"2023-028AN","EPOCH":"2025-10-09T06:17:07.918080","MEAN_MOTION":14.98331977,"ECCENTRICITY":0.00030587,"INCLINATION":69.9993,"RA_OF_ASC_NODE":246.1362,"ARG_OF_PERICENTER":273.2754,"MEAN_ANOMALY":86.8055,"EPHEMERIS_TYPE":0,"CLASSIFICATION_TYPE":"U","NORAD_CAT_ID":55777,"ELEMENT_SET_NO":999,"REV_AT_EPOCH":14385,"BSTAR":-0.00026077198,"MEAN_MOTION_DOT":-3.203e-5,"MEAN_MOTION_DDOT":0},{"OBJECT_NAME":"STARLINK-5816","OBJECT_ID":"2023-028AP","EPOCH":"2025-10-09T06:11:06.974304","MEAN_MOTION":14.98329368,"ECCENTRICITY":0.0002642,"INCLINATION":69.9995,"RA_OF_ASC_NODE":246.122,"ARG_OF_PERICENTER":268.8632,"MEAN_ANOMALY":91.2224,"EPHEMERIS_TYPE":0,"CLASSIFICATION_TYPE":"U","NORAD_CAT_ID":55778,"ELEMENT_SET_NO":999,"REV_AT_EPOCH":14385,"BSTAR":2.485541e-6,"MEAN_MOTION_DOT":-6.3e-7,"MEAN_MOTION_DDOT":0},{"OBJECT_NAME":"STARLINK-5817","OBJECT_ID":"2023-028AQ","EPOCH":"2025-10-09T07:04:51.109536","MEAN_MOTION":14.98332933,"ECCENTRICITY":0.00025497,"INCLINATION":69.9999,"RA_OF_ASC_NODE":225.9715,"ARG_OF_PERICENTER":270.0373,"MEAN_ANOMALY":90.0493,"EPHEMERIS_TYPE":0,"CLASSIFICATION_TYPE":"U","NORAD_CAT_ID":55779,"ELEMENT_SET_NO":999,"REV_AT_EPOCH":14435,"BSTAR":-5.286806e-6,"MEAN_MOTION_DOT":-1.56e-6,"MEAN_MOTION_DDOT":0},{"OBJECT_NAME":"STARLINK-5819","OBJECT_ID":"2023-028AR","EPOCH":"2025-10-09T06:05:06.154944","MEAN_MOTION":14.98328613,"ECCENTRICITY":0.00033091,"INCLINATION":69.9988,"RA_OF_ASC_NODE":246.1068,"ARG_OF_PERICENTER":269.6348,"MEAN_ANOMALY":90.4432,"EPHEMERIS_TYPE":0,"CLASSIFICATION_TYPE":"U","NORAD_CAT_ID":55780,"ELEMENT_SET_NO":999,"REV_AT_EPOCH":14385,"BSTAR":-1.7475641e-5,"MEAN_MOTION_DOT":-3.02e-6,"MEAN_MOTION_DDOT":0},{"OBJECT_NAME":"STARLINK-5820","OBJECT_ID":"2023-028AS","EPOCH":"2025-10-09T06:23:08.092896","MEAN_MOTION":14.98350165,"ECCENTRICITY":0.0002315,"INCLINATION":69.9994,"RA_OF_ASC_NODE":246.186,"ARG_OF_PERICENTER":264.3742,"MEAN_ANOMALY":95.7153,"EPHEMERIS_TYPE":0,"CLASSIFICATION_TYPE":"U","NORAD_CAT_ID":55781,"ELEMENT_SET_NO":999,"REV_AT_EPOCH":14385,"BSTAR":-0.00034378447,"MEAN_MOTION_DOT":-4.194e-5,"MEAN_MOTION_DDOT":0},{"OBJECT_NAME":"STARLINK-5826","OBJECT_ID":"2023-028AT","EPOCH":"2025-10-09T06:59:06.981792","MEAN_MOTION":14.98331414,"ECCENTRICITY":0.00030255,"INCLINATION":69.9991,"RA_OF_ASC_NODE":226.3634,"ARG_OF_PERICENTER":270.2413,"MEAN_ANOMALY":89.84,"EPHEMERIS_TYPE":0,"CLASSIFICATION_TYPE":"U","NORAD_CAT_ID":55782,"ELEMENT_SET_NO":999,"REV_AT_EPOCH":14434,"BSTAR":-8.3443448e-5,"MEAN_MOTION_DOT":-1.089e-5,"MEAN_MOTION_DDOT":0},{"OBJECT_NAME":"STARLINK-5825","OBJECT_ID":"2023-028AU","EPOCH":"2025-10-09T06:58:52.348224","MEAN_MOTION":14.98337785,"ECCENTRICITY":0.00027664,"INCLINATION":69.9998,"RA_OF_ASC_NODE":226.3631,"ARG_OF_PERICENTER":266.1651,"MEAN_ANOMALY":93.9191,"EPHEMERIS_TYPE":0,"CLASSIFICATION_TYPE":"U","NORAD_CAT_ID":55783,"ELEMENT_SET_NO":999,"REV_AT_EPOCH":14434,"BSTAR":-5.3267904e-5,"MEAN_MOTION_DOT":-7.29e-6,"MEAN_MOTION_DDOT":0},{"OBJECT_NAME":"STARLINK-5797","OBJECT_ID":"2023-028AV","EPOCH":"2025-10-09T06:35:04.576128","MEAN_MOTION":14.98332289,"ECCENTRICITY":0.00028289,"INCLINATION":70.0003,"RA_OF_ASC_NODE":226.3067,"ARG_OF_PERICENTER":264.1234,"MEAN_ANOMALY":95.9603,"EPHEMERIS_TYPE":0,"CLASSIFICATION_TYPE":"U","NORAD_CAT_ID":55784,"ELEMENT_SET_NO":999,"REV_AT_EPOCH":14434,"BSTAR":-0.00052145725,"MEAN_MOTION_DOT":-6.31e-5,"MEAN_MOTION_DDOT":0},{"OBJECT_NAME":"STARLINK-5818","OBJECT_ID":"2023-028AW","EPOCH":"2025-10-09T06:52:52.391136","MEAN_MOTION":14.9833336,"ECCENTRICITY":0.00023071,"INCLINATION":70,"RA_OF_ASC_NODE":226.3487,"ARG_OF_PERICENTER":268.9284,"MEAN_ANOMALY":91.1611,"EPHEMERIS_TYPE":0,"CLASSIFICATION_TYPE":"U","NORAD_CAT_ID":55785,"ELEMENT_SET_NO":999,"REV_AT_EPOCH":14434,"BSTAR":-0.00017304953,"MEAN_MOTION_DOT":-2.157e-5,"MEAN_MOTION_DDOT":0},{"OBJECT_NAME":"STARLINK-5823","OBJECT_ID":"2023-028AX","EPOCH":"2025-10-09T06:34:50.530080","MEAN_MOTION":14.98347765,"ECCENTRICITY":0.00031379,"INCLINATION":70.0013,"RA_OF_ASC_NODE":226.3035,"ARG_OF_PERICENTER":269.2072,"MEAN_ANOMALY":90.8727,"EPHEMERIS_TYPE":0,"CLASSIFICATION_TYPE":"U","NORAD_CAT_ID":55786,"ELEMENT_SET_NO":999,"REV_AT_EPOCH":14434,"BSTAR":0.00054538787,"MEAN_MOTION_DOT":6.423e-5,"MEAN_MOTION_DDOT":0},{"OBJECT_NAME":"STARLINK-5811","OBJECT_ID":"2023-028AY","EPOCH":"2025-10-09T06:46:51.637440","MEAN_MOTION":14.9833762,"ECCENTRICITY":0.00026528,"INCLINATION":69.9993,"RA_OF_ASC_NODE":226.3332,"ARG_OF_PERICENTER":270.5411,"MEAN_ANOMALY":89.5444,"EPHEMERIS_TYPE":0,"CLASSIFICATION_TYPE":"U","NORAD_CAT_ID":55787,"ELEMENT_SET_NO":999,"REV_AT_EPOCH":14434,"BSTAR":0.00013384603,"MEAN_MOTION_DOT":1.505e-5,"MEAN_MOTION_DDOT":0},{"OBJECT_NAME":"STARLINK-5804","OBJECT_ID":"2023-028AZ","EPOCH":"2025-10-09T06:40:50.481984","MEAN_MOTION":14.98334134,"ECCENTRICITY":0.00025528,"INCLINATION":69.9994,"RA_OF_ASC_NODE":226.3192,"ARG_OF_PERICENTER":269.5243,"MEAN_ANOMALY":90.5623,"EPHEMERIS_TYPE":0,"CLASSIFICATION_TYPE":"U","NORAD_CAT_ID":55788,"ELEMENT_SET_NO":999,"REV_AT_EPOCH":14434,"BSTAR":3.0571974e-5,"MEAN_MOTION_DOT":2.72e-6,"MEAN_MOTION_DDOT":0},{"OBJECT_NAME":"STARLINK-5815","OBJECT_ID":"2023-028BA","EPOCH":"2025-10-09T06:04:47.604000","MEAN_MOTION":14.98321211,"ECCENTRICITY":0.00026453,"INCLINATION":70.0012,"RA_OF_ASC_NODE":226.2302,"ARG_OF_PERICENTER":266.5511,"MEAN_ANOMALY":93.5346,"EPHEMERIS_TYPE":0,"CLASSIFICATION_TYPE":"U","NORAD_CAT_ID":55789,"ELEMENT_SET_NO":999,"REV_AT_EPOCH":14434,"BSTAR":-8.3817799e-5,"MEAN_MOTION_DOT":-1.093e-5,"MEAN_MOTION_DDOT":0},{"OBJECT_NAME":"STARLINK-5813","OBJECT_ID":"2023-028BB","EPOCH":"2025-10-09T06:11:01.290048","MEAN_MOTION":14.98358774,"ECCENTRICITY":0.00028064,"INCLINATION":70.0001,"RA_OF_ASC_NODE":226.2457,"ARG_OF_PERICENTER":281.1318,"MEAN_ANOMALY":78.9526,"EPHEMERIS_TYPE":0,"CLASSIFICATION_TYPE":"U","NORAD_CAT_ID":55790,"ELEMENT_SET_NO":999,"REV_AT_EPOCH":14434,"BSTAR":-0.00034798472,"MEAN_MOTION_DOT":-4.246e-5,"MEAN_MOTION_DDOT":0}]
